#dP2021  5 30  0  0  0.00000000      96 __u+U ITR00 FIT  IAC
## 2160      0.00000000   900.00000000 59364 0.0000000000000
+  116   C06C07C08C09C10C11C12C13C14C16C19C20C21C22C23C24C25
+        C26C27C28C29C30C32C33C34C35C36C37C38C39C40C41C42C43
+        C44C45C46E01E02E03E04E05E07E08E09E11E12E13E14E15E18
+        E19E21E24E25E26E27E30E31E33E36G01G02G03G04G05G06G07
+        G08G09G10G12G13G14G15G16G17G18G19G20G21G22G23G24G25
+        G26G27G28G29G30G31G32J01J02J03R01R02R03R04R05R07R08
+        R09R11R12R13R14R15R16R17R18R19R20R21R22R24  0  0  0
++         9  7 12  7  8  6  7 10  7  8  8  7  7  7  7  6  7
++         8  7  6  7  7  7  7  6  7  8  8  6  9  8  7  8  6
++         8  6  8  6  7  6  7  6  5  7  7  6  6  7  6  8  7
++         7  7  6  7  6  7  6  7  6  7  6  6  7  6  5  6  8
++         7  7  7  7  5  6  7  6  6  7  7  6  6  8  6  6  7
++         6  6  6  7  6  7  7  8  7  9  7  7  7  6  7  7  7
++         9  7  7  7  6  6  8  5  7  7  8  7  7  6  0  0  0
%c M  cc GPS ccc cccc cccc cccc cccc ccccc ccccc ccccc ccccc
%c cc cc ccc ccc cccc cccc cccc cccc ccccc ccccc ccccc ccccc
%f  0.0000000  0.000000000  0.00000000000  0.000000000000000
%f  0.0000000  0.000000000  0.00000000000  0.000000000000000
%i    0    0    0    0      0      0      0      0         0
%i    0    0    0    0      0      0      0      0         0
/* INFORMATION & ANALYSIS CENTER (IAC)      ULTRA-RAPID DATA
/* S/V CLOCKS ARE ALIGNED TO GNSS TIME                      
/* G:C1WC2W R:C1PC2P E:C1XC5X C:C2IC6I J:C1CC2S             
/* PCV:IGS14_2148 OL/AL:FES2004  NONE     YN ORB:CoN CLK:CoN
*  2021 05 30 14 15  0.00000000
PC06  -9386.299415  34733.563263  22858.617716    444.330582
PC07 -17594.497166  22101.924701 -31160.219131    126.538402
PC08 -24003.699430  32461.978714  11603.369183   -891.705445
PC09    274.587999  41398.904184   9454.008269    485.485399
PC10     60.011561  26755.896563 -32338.531902    -36.063834
PC11  -2468.600873  26633.495467  -7833.764401    370.758993
PC12 -12347.187758  13606.340693 -20971.086714    862.981166
PC13 -13337.715703  33286.948076  22077.198004    280.781163
PC14  -2391.400770  16095.224469  22694.549091    873.073586
PC16  -6527.106054  36356.796537  20660.325601   -868.179542
PC19  -8645.502606 -18094.282738 -19384.428976    853.984231
PC20  10973.527553 -12284.751868 -22500.320536   -895.658320
PC21 -25050.618767  -1240.167635  12286.307496   -937.703968
PC22 -23854.557811 -13652.101999  -4924.918456   -952.793919
PC23  15680.536297   7701.787677 -21753.855497   -920.807306
PC24 -18996.727517  19537.734929  -5967.935772   -871.606691
PC25  -1202.382278  19255.804964 -20159.130451   -909.040383
PC26 -24070.749301   9579.325062  10323.279345    899.759565
PC27  15579.230832  -3121.417864  22917.024107    540.117012
PC28  13713.330923  17367.970060  16996.538206    -68.296024
PC29  -4859.929615 -27455.490510  -1115.665108    399.288960
PC30   7831.604808 -21636.190791  15763.353518    468.863852
PC32  25042.215798   1071.178749 -12232.213120   -928.458839
PC33   8589.976194  18074.159821  19451.594705   -936.702454
PC34  -7474.069495  22186.543834 -15219.654400   -661.772964
PC35 -14255.502524 -17164.357450 -16748.326068   -256.691153
PC36   2023.946647 -19370.233871  20011.123142   -726.821185
PC37  24222.521612  -8336.520419 -11068.158304   -883.234334
PC38 -20099.825844  33947.388098  14672.979788    152.051928
PC39  -2533.070382  37614.740920  19046.222055     31.426220
PC40  -6185.577228  21550.336006 -35681.518613    166.049522
PC41  23694.103145  13778.221561   5299.363552   -945.128911
PC42 -11801.339282  11924.806134  22350.999499   -913.649600
PC43   4375.672713  27568.350284    575.927736   -753.733281
PC44 -15641.787247   3487.784572 -22858.971448    214.141410
PC45 -15714.223435  -7492.676941  21812.324198    453.899316
PC46  18349.557642 -19877.569024   6925.525843    247.251276
PE01  -5071.222674 -15854.232811  24476.871909  -1118.707314
PE02   5233.306397  15819.550163 -24466.762780    222.648792
PE03  11758.886760  25232.949678  10043.875603   -436.532128
PE04 -22294.760300 -17652.774527   8234.158798   -781.860374
PE05  -5837.133572  18104.272518  22687.032395   -276.894362
PE07  19823.895279   -507.038454 -21959.456134   -543.893362
PE08  22400.337781  17345.461877  -8542.302452   5993.925829
PE09 -19659.526471    680.579757  22133.814504   5650.451269
PE11 -18239.851292  11481.335735 -20310.551064   5915.187630
PE12 -12987.777141 -10812.377217 -24303.634166   5184.986723
PE13  18136.192206 -11094.499637  20590.095979    417.087209
PE14 -16489.322733  12132.951948 -24381.700776  -1448.886137
PE15  12956.676521  10735.742392  24354.269454    811.510532
PE18   5446.560656 -18846.695177  15460.393110  -1586.450529
PE19  -9996.366117 -25138.937282 -11999.513353    289.797076
PE21  16046.110100 -15857.316808  19162.252967   -667.837336
PE24 -28915.535833   6032.298140  -1758.024074   -927.907876
PE25 -16243.318543  15804.129875 -19035.018594   -535.404077
PE26  12345.596188 -26620.747629   3880.551568   1750.984254
PE27  28727.898671  -6678.082546   2548.830708    -43.523717
PE30  23769.680207   7118.047959 -16156.962714   2903.819642
PE31 -24429.422979  -6371.841370  15459.693587   -481.691335
PE33   -166.290231 -26191.434705 -13779.230038   -469.171749
PE36 -12631.714539  26359.537537  -4709.288230   -214.135733
PG01  13993.248293 -22343.135980    268.695787    673.813661
PG02 -17359.184194   5483.571452 -18708.712041   -608.443998
PG03  13884.809633 -12647.440130 -18818.810608   -178.147672
PG04   5280.288997 -18235.263632 -18543.005345   -198.216096
PG05 -24903.275033   5702.860279   7454.382590    -43.466295
PG06 -12597.854652  -7533.558680 -22079.608392     21.168715
PG07   3581.063966 -23022.401909  12628.649543    165.070532
PG08  11996.049931  -9266.176381  21780.757462    -23.193268
PG09  -4774.390651 -23779.941726 -10857.829423   -348.479317
PG10  17053.080542  11833.195410  16841.278540   -132.340802
PG12 -16246.830712  10915.210526 -18141.912256    -48.139503
PG13 -15794.637329   -216.671509  21241.164945    138.514705
PG14 -16210.978296 -12806.414487  16703.598257     78.033868
PG15 -11357.563034  11037.020152  20935.696619   -145.836480
PG16  26566.740948    649.957892   3293.982637   -333.376095
PG17 -13224.605014 -22735.567847  -3245.781960    450.611388
PG18  -1591.926347  21812.612283  15011.264980    348.812226
PG19 -16279.709397 -17227.043178 -12394.369270      6.821840
PG20 -21658.757730  10651.018266  10679.173172    521.670602
PG21  16771.692922 -18248.040690   9537.265136    121.694584
PG22  21824.735653  -9923.912167 -11027.580035   -601.215354
PG23   5077.875425  14825.866656  21430.044914    102.005105
PG24 -15263.031781  20645.307305   5687.336183    107.086508
PG25  -2802.987799  15207.559206 -21839.308598    146.764787
PG26  25464.376793   4317.545636  -6830.985838     92.005465
PG27  17121.432454   2958.968093  20017.756691   -138.854759
PG28 -20631.925883 -11133.743358  12848.339557    562.911112
PG29   2651.679381  23848.173334 -11383.122188   -355.811104
PG30  -7286.129232 -15895.999803  19991.314474   -432.725188
PG31  15064.395945   4623.086264 -21513.938270   -120.229312
PG32  16031.234423  20518.059044  -5571.227790     20.038758
PJ01 -27628.253003  20411.017930  29504.239506   -387.131814
PJ02 -34993.396926  18689.154449  -9791.665291     -0.061486
PJ03 -19829.433523  28650.227764 -19183.516528     -6.736422
PR01  21314.048732  13965.650886    956.200931     80.172043
PR02  18098.109717   1952.460973 -17850.232286    480.561579
PR03   4021.080151 -10397.378723 -22892.086170     36.843986
PR04 -12229.032483 -16560.463651 -15027.056490     89.076135
PR05 -21516.268300 -13625.696187   1255.197028     72.676888
PR07  -3337.370869  10846.623070  22890.219742    -42.415063
PR08  12208.967539  16651.333707  15050.744520    -59.266324
PR09 -23236.319539   9877.142035   3910.308763     -4.562575
PR11    340.391497  11832.633260 -22585.420155     -7.875144
PR12  17064.360850   1429.054902 -18886.665155    233.123954
PR13  23188.349664  -9572.162632  -4626.275552    -55.493907
PR14  15673.658775 -15139.467205  13256.160586     64.806082
PR15   -767.260192 -11730.090408  22657.356709    103.549576
PR16 -17756.085612   -524.015278  18227.273801    -15.719725
PR17   6168.446908 -22485.790211  10388.305432    428.423947
PR18  -1207.145568 -24608.464118  -6489.205283     78.322143
PR19  -7318.819276 -14704.452253 -19522.349710   -145.775032
PR20 -10559.548797   6736.658267 -22227.988767    -50.020053
PR21  -5749.447715  23043.220100  -9283.423664   -212.813777
PR22   1520.713456  24384.272367   7484.939305   -115.235618
PR24  10859.076950  -7598.707769  21806.661925     44.635981
EOF
